NORAD_CAT_ID,OBJECT_NAME,OBJECT_TYPE,EPOCH,MEAN_MOTION,ECCENTRICITY,INCLINATION,RA_OF_ASC_NODE,ARG_OF_PERICENTER,MEAN_ANOMALY,BSTAR,MEAN_MOTION_DOT,MEAN_MOTION_DDOT,TLE_LINE0,TLE_LINE1,TLE_LINE2,SEMIMAJOR_AXIS,PERIOD,APOGEE,PERIGEE,DECAYED
53928.0,STARLINK-5009,PAYLOAD,2023-02-10 00:57:12,15.08830879,7.66e-05,53.2178,308.2734,88.0174,272.0906,-0.00012545,-2.283e-05,0.0,0 STARLINK-5009,1 53928U 22119AU  23041.03972745 -.00002283  00000-0 -12545-3 0  9996,2 53928  53.2178 308.2734 0000766  88.0174 272.0906 15.08830879 21917,6917.908,95.438,540.303,539.243,0.0
53928.0,STARLINK-5009,PAYLOAD,2023-02-10 02:32:34,15.08844828,9.21e-05,53.2184,307.9731,75.8609,284.2486,-4.0606e-05,-9.34e-06,0.0,0 STARLINK-5009,1 53928U 22119AU  23041.10595649 -.00000934  00000-0 -40606-4 0  9999,2 53928  53.2184 307.9731 0000921  75.8609 284.2486 15.08844828 21925,6917.866,95.437,540.368,539.093,0.0
53928.0,STARLINK-5009,PAYLOAD,2023-02-11 00:47:57,15.08860489,5.85e-05,53.2181,303.8099,91.2748,268.8311,0.0001481,2.071e-05,0.0,0 STARLINK-5009,1 53928U 22119AU  23042.03330164  .00002071  00000-0  14810-3 0  9990,2 53928  53.2181 303.8099 0000585  91.2748 268.8311 15.08860489 22068,6917.818,95.436,540.087,539.278,0.0
53928.0,STARLINK-5009,PAYLOAD,2023-02-11 18:17:11,15.08860326,8.38e-05,53.2174,300.541,147.4378,212.6666,0.0001798,2.577e-05,0.0,0 STARLINK-5009,1 53928U 22119AU  23042.76193345  .00002577  00000-0  17980-3 0  9990,2 53928  53.2174 300.5410 0000838 147.4378 212.6666 15.08860326 22593,6917.818,95.436,540.263,539.104,0.0
53928.0,STARLINK-5009,PAYLOAD,2023-02-12 02:14:09,15.08840342,8.4e-05,53.2188,299.0528,69.506,290.6022,-1.6417e-05,-5.49e-06,0.0,0 STARLINK-5009,1 53928U 22119AU  23043.09316286 -.00000549  00000-0 -16417-4 0  9992,2 53928  53.2188 299.0528 0000840  69.5060 290.6022 15.08840342 22223,6917.879,95.438,540.325,539.163,0.0
53928.0,STARLINK-5009,PAYLOAD,2023-02-12 16:32:38,15.08837971,0.0001722,53.2184,296.3801,51.7121,308.4026,-0.00018466,-3.226e-05,0.0,0 STARLINK-5009,1 53928U 22119AU  23043.68933632 -.00003226  00000-0 -18466-3 0  9997,2 53928  53.2184 296.3801 0001722  51.7121 308.4026 15.08837971 22310,6917.887,95.438,540.943,538.56,0.0
53928.0,STARLINK-5009,PAYLOAD,2023-02-12 22:54:10,15.08843703,0.0001381,53.2177,295.1908,59.9491,300.1638,-0.00015678,-2.782e-05,0.0,0 STARLINK-5009,1 53928U 22119AU  23043.95429013 -.00002782  00000-0 -15678-3 0  9998,2 53928  53.2177 295.1908 0001381  59.9491 300.1638 15.08843703 22350,6917.869,95.437,540.689,538.779,0.0
53928.0,STARLINK-5009,PAYLOAD,2023-02-13 10:01:52,15.0883199,0.000154,53.2187,293.1068,58.2058,301.9084,9.7626e-05,1.266e-05,0.0,0 STARLINK-5009,1 53928U 22119AU  23044.41797198  .00001266  00000-0  97626-4 0  9990,2 53928  53.2187 293.1068 0001540  58.2058 301.9084 15.08831990 22847,6917.905,95.438,540.835,538.705,0.0
53928.0,STARLINK-5009,PAYLOAD,2023-02-13 22:44:57,15.08847946,0.0001116,53.2163,290.7263,80.1593,279.9525,1.1631e-05,-1.03e-06,0.0,0 STARLINK-5009,1 53928U 22119AU  23044.94788378 -.00000103  00000-0  11631-4 0  9990,2 53928  53.2163 290.7263 0001116  80.1593 279.9525 15.08847946 22503,6917.856,95.437,540.493,538.949,0.0
53928.0,STARLINK-5009,PAYLOAD,2023-02-14 09:52:38,15.08848693,0.0001197,53.2165,288.6453,67.6388,292.4731,-2.3382e-06,-3.25e-06,0.0,0 STARLINK-5009,1 53928U 22119AU  23045.41156187 -.00000325  00000-0 -23382-5 0  9994,2 53928  53.2165 288.6453 0001197  67.6388 292.4731 15.08848693 22995,6917.854,95.437,540.547,538.891,0.0
53928.0,STARLINK-5009,PAYLOAD,2023-02-14 16:14:12,15.08831314,0.0001551,53.2174,287.4558,72.8988,287.2174,0.00014779,2.064e-05,0.0,0 STARLINK-5009,1 53928U 22119AU  23045.67653012  .00002064  00000-0  14779-3 0  9999,2 53928  53.2174 287.4558 0001551  72.8988 287.2174 15.08831314 22610,6917.907,95.438,540.845,538.699,0.0
53928.0,STARLINK-5009,PAYLOAD,2023-02-14 19:24:58,15.08830305,0.0001422,53.2159,286.8611,76.959,283.1561,8.8715e-05,1.124e-05,0.0,0 STARLINK-5009,1 53928U 22119AU  23045.80901305  .00001124  00000-0  88715-4 0  9993,2 53928  53.2159 286.8611 0001422  76.9590 283.1561 15.08830305 23050,6917.91,95.438,540.759,538.791,0.0
53928.0,STARLINK-5009,PAYLOAD,2023-02-14 22:35:44,15.08839748,0.0001303,53.2156,286.2655,82.2779,277.8361,5.3208e-05,5.59e-06,0.0,0 STARLINK-5009,1 53928U 22119AU  23045.94148844  .00000559  00000-0  53208-4 0  9999,2 53928  53.2156 286.2655 0001303  82.2779 277.8361 15.08839748 23076,6917.881,95.438,540.648,538.845,0.0
53928.0,STARLINK-5009,PAYLOAD,2023-02-15 20:51:08,15.08845814,0.0001325,53.2154,282.1035,70.9869,289.1267,4.6097e-05,4.46e-06,0.0,0 STARLINK-5009,1 53928U 22119AU  23046.86884478  .00000446  00000-0  46097-4 0  9994,2 53928  53.2154 282.1035 0001325  70.9869 289.1267 15.08845814 23217,6917.863,95.437,540.644,538.811,0.0
53928.0,STARLINK-5009,PAYLOAD,2023-02-15 22:26:31,15.08852083,0.0001178,53.216,281.8053,69.8789,290.233,9.3532e-06,-1.39e-06,0.0,0 STARLINK-5009,1 53928U 22119AU  23046.93508140 -.00000139  00000-0  93532-5 0  9998,2 53928  53.2160 281.8053 0001178  69.8789 290.2330 15.08852083 22808,6917.843,95.437,540.523,538.894,0.0
53928.0,STARLINK-5009,PAYLOAD,2023-02-16 07:58:50,15.08843538,0.0001322,53.2164,280.0215,70.4764,289.6371,-9.2657e-06,-4.35e-06,0.0,0 STARLINK-5009,1 53928U 22119AU  23047.33252670 -.00000435  00000-0 -92657-5 0  9994,2 53928  53.2164 280.0215 0001322  70.4764 289.6371 15.08843538 22863,6917.87,95.437,540.649,538.82,0.0
53928.0,STARLINK-5009,PAYLOAD,2023-02-16 19:06:32,15.08832268,0.0001444,53.2155,277.9401,78.6418,281.4737,-5.4892e-06,-3.75e-06,0.0,0 STARLINK-5009,1 53928U 22119AU  23047.79621414 -.00000375  00000-0 -54892-5 0  9992,2 53928  53.2155 277.9401 0001444  78.6418 281.4737 15.08832268 22938,6917.904,95.438,540.768,538.77,0.0
53928.0,STARLINK-5009,PAYLOAD,2023-02-16 22:17:18,15.08846877,9.5e-05,53.2153,277.3457,87.6599,272.4502,4.82e-05,4.8e-06,0.0,0 STARLINK-5009,1 53928U 22119AU  23047.92868120  .00000480  00000-0  48200-4 0  9994,2 53928  53.2153 277.3457 0000950  87.6599 272.4502 15.08846877 23372,6917.859,95.437,540.382,539.067,0.0
53928.0,STARLINK-5009,PAYLOAD,2023-02-17 07:49:37,15.08833018,9.77e-05,53.2148,275.5618,84.7724,275.338,7.0297e-06,-1.76e-06,0.0,0 STARLINK-5009,1 53928U 22119AU  23048.32613148 -.00000176  00000-0  70297-5 0  9992,2 53928  53.2148 275.5618 0000977  84.7724 275.3380 15.08833018 23012,6917.902,95.438,540.443,539.091,0.0
53928.0,STARLINK-5009,PAYLOAD,2023-02-17 18:57:20,15.08829788,0.0001082,53.2152,273.4822,81.6421,278.4694,-0.0001197,-2.192e-05,0.0,0 STARLINK-5009,1 53928U 22119AU  23048.78982155 -.00002192  00000-0 -11970-3 0  9991,2 53928  53.2152 273.4822 0001082  81.6421 278.4694 15.08829788 23087,6917.912,95.438,540.525,539.028,0.0
53928.0,STARLINK-5009,PAYLOAD,2023-02-17 22:08:06,15.08830683,0.0001058,53.2156,272.8869,82.3342,277.777,-0.00011171,-2.065e-05,0.0,0 STARLINK-5009,1 53928U 22119AU  23048.92230128 -.00002065  00000-0 -11171-3 0  9995,2 53928  53.2156 272.8869 0001058  82.3342 277.7770 15.08830683 23520,6917.909,95.438,540.506,539.042,0.0
53928.0,STARLINK-5009,PAYLOAD,2023-02-18 07:40:25,15.0883605,0.0001202,53.2164,271.1006,89.4304,270.6826,-1.0761e-05,-4.59e-06,0.0,0 STARLINK-5009,1 53928U 22119AU  23049.31973531 -.00000459  00000-0 -10761-4 0  9991,2 53928  53.2164 271.1006 0001202  89.4304 270.6826 15.08836050 23169,6917.892,95.438,540.589,538.926,0.0
53928.0,STARLINK-5009,PAYLOAD,2023-02-19 07:31:11,15.08842676,0.0001004,53.2167,266.6394,100.2412,259.8694,6.1629e-05,6.93e-06,0.0,0 STARLINK-5009,1 53928U 22119AU  23050.31332932  .00000693  00000-0  61629-4 0  9994,2 53928  53.2167 266.6394 0001004 100.2412 259.8694 15.08842676 23313,6917.872,95.437,540.432,539.043,0.0
53928.0,STARLINK-5009,PAYLOAD,2023-02-19 13:52:44,15.08831976,0.0001145,53.2164,265.4503,88.0121,272.1002,0.00012932,1.77e-05,0.0,0 STARLINK-5009,1 53928U 22119AU  23050.57829473  .00001770  00000-0  12932-3 0  9992,2 53928  53.2164 265.4503 0001145  88.0121 272.1002 15.08831976 23777,6917.905,95.438,540.562,538.978,0.0
53928.0,STARLINK-5009,PAYLOAD,2023-02-19 20:14:17,15.0883359,0.0001123,53.2166,264.2609,88.286,271.826,0.00012998,1.781e-05,0.0,0 STARLINK-5009,1 53928U 22119AU  23050.84325463  .00001781  00000-0  12998-3 0  9996,2 53928  53.2166 264.2609 0001123  88.2860 271.8260 15.08833590 23395,6917.9,95.438,540.542,538.988,0.0
53928.0,STARLINK-5009,PAYLOAD,2023-02-20 13:43:31,15.08841602,0.0001289,53.2166,260.9901,86.02,274.094,4.824e-06,-2.11e-06,0.0,0 STARLINK-5009,1 53928U 22119AU  23051.57189405 -.00000211  00000-0  48240-5 0  9990,2 53928  53.2166 260.9901 0001289  86.0200 274.0940 15.08841602 23922,6917.875,95.437,540.632,538.849,0.0
53928.0,STARLINK-5009,PAYLOAD,2023-02-20 23:15:49,15.08846905,0.0001183,53.2163,259.2054,85.7416,274.3711,3.4682e-05,2.64e-06,0.0,0 STARLINK-5009,1 53928U 22119AU  23051.96932815  .00000264  00000-0  34682-4 0  9995,2 53928  53.2163 259.2054 0001183  85.7416 274.3711 15.08846905 23567,6917.859,95.437,540.543,538.906,0.0
53928.0,STARLINK-5009,PAYLOAD,2023-02-21 13:34:18,15.08841594,0.0001233,53.2165,256.5294,81.4031,278.7101,1.0608e-05,-1.19e-06,0.0,0 STARLINK-5009,1 53928U 22119AU  23052.56549014 -.00000119  00000-0  10608-4 0  9999,2 53928  53.2165 256.5294 0001233  81.4031 278.7101 15.08841594 24074,6917.876,95.437,540.593,538.888,0.0
53928.0,STARLINK-5009,PAYLOAD,2023-02-21 19:55:50,15.08847383,0.0001214,53.217,255.3389,84.9219,275.1912,3.3391e-06,-2.35e-06,0.0,0 STARLINK-5009,1 53928U 22119AU  23052.83044593 -.00000235  00000-0  33391-5 0  9995,2 53928  53.2170 255.3389 0001214  84.9219 275.1912 15.08847383 24115,6917.858,95.437,540.563,538.883,0.0
53928.0,STARLINK-5009,PAYLOAD,2023-02-21 23:06:36,15.08848004,0.0001239,53.2169,254.7441,86.4466,273.6667,1.4042e-05,-6.4e-07,0.0,0 STARLINK-5009,1 53928U 22119AU  23052.96292456 -.00000064  00000-0  14042-4 0  9993,2 53928  53.2169 254.7441 0001239  86.4466 273.6667 15.08848004 24136,6917.856,95.437,540.578,538.864,0.0
